[{"OBJECT_NAME":"DS-EO","OBJECT_ID":"2022-072A","EPOCH":"2026-03-09T23:09:32.454144","MEAN_MOTION":15.12980389,"ECCENTRICITY":0.00042856,"INCLINATION":9.9929,"RA_OF_ASC_NODE":205.6872,"ARG_OF_PERICENTER":305.4389,"MEAN_ANOMALY":54.5426,"EPHEMERIS_TYPE":0,"CLASSIFICATION_TYPE":"U","NORAD_CAT_ID":52935,"ELEMENT_SET_NO":999,"REV_AT_EPOCH":20345,"BSTAR":0.00030023735,"MEAN_MOTION_DOT":6.277e-5,"MEAN_MOTION_DDOT":0},{"OBJECT_NAME":"PIESAT A","OBJECT_ID":"2023-047A","EPOCH":"2026-03-09T13:45:37.273248","MEAN_MOTION":15.14302818,"ECCENTRICITY":0.0002367,"INCLINATION":97.5034,"RA_OF_ASC_NODE":257.1452,"ARG_OF_PERICENTER":89.923,"MEAN_ANOMALY":270.2273,"EPHEMERIS_TYPE":0,"CLASSIFICATION_TYPE":"U","NORAD_CAT_ID":56153,"ELEMENT_SET_NO":999,"REV_AT_EPOCH":16272,"BSTAR":0.00032318,"MEAN_MOTION_DOT":5.852e-5,"MEAN_MOTION_DDOT":0}]
